OBJECT_NAME,OBJECT_ID,EPOCH,MEAN_MOTION,ECCENTRICITY,INCLINATION,RA_OF_ASC_NODE,ARG_OF_PERICENTER,MEAN_ANOMALY,EPHEMERIS_TYPE,CLASSIFICATION_TYPE,NORAD_CAT_ID,ELEMENT_SET_NO,REV_AT_EPOCH,BSTAR,MEAN_MOTION_DOT,MEAN_MOTION_DDOT
SAUDISAT 1C (SO-50),2002-058C,2026-07-17T23:18:35.552448,14.83101410,.00744416,64.5519,33.7353,256.7655,102.5140,0,U,27607,999,26902,.61896608E-4,.371E-5,0
SAUDISAT 2,2004-025F,2026-07-18T10:04:32.304576,14.56699230,.00242668,98.5522,200.2109,198.0745,161.9592,0,U,28371,999,17029,.30506232E-4,.87E-6,0
SAUDISAT 3,2007-012B,2026-07-18T14:34:50.863296,14.71441215,.00157694,98.1469,150.0317,124.5705,235.6992,0,U,31118,999,3236,.22235976E-4,.87E-6,0
PISAT,2016-059B,2026-07-18T11:26:21.585408,14.69032901,.00305337,97.8193,198.5872,104.8101,255.6491,0,U,41784,999,52433,.80076487E-4,.426E-5,0
FLYING LAPTOP,2017-042G,2026-07-18T15:30:01.827072,15.01326759,.00195434,97.4826,353.9983,21.5324,338.6718,0,U,42831,999,49117,.16311436E-3,.205E-4,0
SALSAT,2020-068K,2026-07-18T00:21:03.770208,15.30195257,.00094957,97.8861,203.9671,182.8082,177.3106,0,U,46495,999,32007,.14176866E-3,.4061E-4,0
